[{"OBJECT_NAME":"ICESAT-2","OBJECT_ID":"2018-070A","EPOCH":"2026-03-09T22:54:12.225888","MEAN_MOTION":15.28328617,"ECCENTRICITY":0.00038245,"INCLINATION":91.9993,"RA_OF_ASC_NODE":264.2397,"ARG_OF_PERICENTER":123.8941,"MEAN_ANOMALY":236.2673,"EPHEMERIS_TYPE":0,"CLASSIFICATION_TYPE":"U","NORAD_CAT_ID":43613,"ELEMENT_SET_NO":999,"REV_AT_EPOCH":41730,"BSTAR":0.00014022643,"MEAN_MOTION_DOT":3.87e-5,"MEAN_MOTION_DDOT":0},{"OBJECT_NAME":"STARLINK-33679","OBJECT_ID":"2025-070A","EPOCH":"2026-03-09T21:19:52.510944","MEAN_MOTION":15.27591438,"ECCENTRICITY":0.0002205,"INCLINATION":42.9999,"RA_OF_ASC_NODE":258.9858,"ARG_OF_PERICENTER":253.8759,"MEAN_ANOMALY":106.1851,"EPHEMERIS_TYPE":0,"CLASSIFICATION_TYPE":"U","NORAD_CAT_ID":63460,"ELEMENT_SET_NO":999,"REV_AT_EPOCH":5300,"BSTAR":0.0008433761,"MEAN_MOTION_DOT":0.00023027,"MEAN_MOTION_DDOT":0}]
